From:	Horizons Ephemeris System <horizons@ssd.jpl.nasa.gov>
Sent:	Friday, December 4, 2020 11:42 AM
Subject:	[Horizons] MAJOR BODY #C(usr={180.,-5.,.600^G}@301)_T(301) (1/1)

 Automated mail xmit by MAIL_REQUEST, PID= 17961 Fri Dec  4 09:41:46 2020
++++++++++++++++++++++++++++++++ (part 1 of 1)  +++++++++++++++++++++++++++++++
*******************************************************************************
 Revised: July 31, 2013             Moon / (Earth)                          301
 
 GEOPHYSICAL DATA (updated 2018-Aug-15):
  Vol. mean radius, km  = 1737.53+-0.03    Mass, x10^22 kg       =    7.349
  Radius (gravity), km  = 1738.0           Surface emissivity    =    0.92
  Radius (IAU), km      = 1737.4           GM, km^3/s^2          = 4902.800066
  Density, g/cm^3       =    3.3437        GM 1-sigma, km^3/s^2  =  +-0.0001  
  V(1,0)                =   +0.21          Surface accel., m/s^2 =    1.62
  Earth/Moon mass ratio = 81.3005690769    Farside crust. thick. = ~80 - 90 km
  Mean crustal density  = 2.97+-.07 g/cm^3 Nearside crust. thick.= 58+-8 km 
  Heat flow, Apollo 15  = 3.1+-.6 mW/m^2   Mean angular diameter = 31'05.2"
  Heat flow, Apollo 17  = 2.2+-.5 mW/m^2   Sid. rot. rate, rad/s = 0.0000026617
  Geometric Albedo      = 0.12             Mean solar day        = 29.5306 d
  Obliquity to orbit    = 6.67 deg         Orbit period          = 27.321582 d
  Semi-major axis, a    = 384400 km        Eccentricity          = 0.05490
  Mean motion, rad/s    = 2.6616995x10^-6  Inclination           = 5.145 deg
  Apsidal period        = 3231.50 d        Nodal period          = 6798.38 d
                                 Perihelion  Aphelion    Mean
  Solar Constant (W/m^2)         1414+-7     1323+-7     1368+-7
  Maximum Planetary IR (W/m^2)   1314        1226        1268
  Minimum Planetary IR (W/m^2)      5.2         5.2         5.2
********************************************************************************
 
 
*******************************************************************************
Ephemeris / MAIL_REQUEST Fri Dec  4 09:41:45 2020 Pasadena, USA  / Horizons
*******************************************************************************
Target body name: Moon (301)                      {source: DE431mx}
Center body name: Moon (301)                      {source: DE431mx}
Center-site name: (user defined site below)
*******************************************************************************
Start time      : A.D. 2020-Jan-01 00:00:00.0000 TDB
Stop  time      : A.D. 2039-Jan-01 00:00:00.0000 TDB
Step-size       : 10000 steps
*******************************************************************************
Center geodetic : 180.000000,-5.0000000,0.6000000 {E-lon(deg),Lat(deg),Alt(km)}
Center cylindric: 180.000000,1731.38639,-151.4767 {E-lon(deg),Dxy(km),Dz(km)}
Center pole/equ : IAU_MOON                        {East-longitude positive}
Center radii    : 1737.4 x 1737.4 x 1737.4 km     {Equator, meridian, pole}    
Output units    : KM-S
Output type     : GEOMETRIC cartesian states
Output format   : 3 (position, velocity, LT, range, range-rate)
Reference frame : Ecliptic of J2000.0
*******************************************************************************
JDTDB
   X     Y     Z
   VX    VY    VZ
   LT    RG    RR
*******************************************************************************
$$SOE
2465012.220000000 = A.D. 2036-Nov-14 17:16:48.0000 TDB 
   1.714255763863922E+03  2.142949124716705E+02  1.898653906010309E+02
  -5.791309030612772E-04  4.571223919163879E-03  6.946215377712141E-05
   5.797343974543885E-03  1.738000000000000E+03 -3.583232036108594E-19
2465012.914000000 = A.D. 2036-Nov-15 09:56:09.6000 TDB 
   1.657853811954436E+03  4.844746364577763E+02  1.935176085457098E+02
  -1.298146687195765E-03  4.421399680681522E-03  5.209567742478494E-05
   5.797343974543885E-03  1.738000000000000E+03 -9.182655914261577E-20
2465013.608000000 = A.D. 2036-Nov-16 02:35:31.2000 TDB 
   1.559237458887039E+03  7.422753924123554E+02  1.960861765208703E+02
  -1.984189307896264E-03  4.159203005789213E-03  3.339476176419834E-05
   5.797343974543884E-03  1.738000000000000E+03  3.243873013190233E-19
2465014.302000001 = A.D. 2036-Nov-16 19:14:52.8000 TDB 
   1.420911857040999E+03  9.811448149967446E+02  1.975053075876825E+02
  -2.619823579344590E-03  3.791290669711087E-03  1.383863829855156E-05
   5.797343974543884E-03  1.738000000000000E+03  3.001830180667576E-19
2465014.996000000 = A.D. 2036-Nov-17 11:54:14.4000 TDB 
   1.246391404027860E+03  1.195011250813857E+03  1.977386618589338E+02
  -3.188893083660549E-03  3.327005970156451E-03 -6.071842563008800E-06
   5.797343974543884E-03  1.738000000000000E+03  6.586309860242782E-19
2465015.690000000 = A.D. 2036-Nov-18 04:33:36.0000 TDB 
   1.040110568641723E+03  1.378438078001377E+03  1.967802584500313E+02
  -3.676930731644048E-03  2.778142040351666E-03 -2.582708453930608E-05
   5.797343974543885E-03  1.738000000000000E+03 -2.250748813767376E-19
2465016.384000001 = A.D. 2036-Nov-18 21:12:57.6000 TDB 
   8.073113291369090E+02  1.526761933262370E+03  1.946546094705936E+02
  -4.071526635429483E-03  2.158642900513241E-03 -4.492176357684852E-05
   5.797343974543885E-03  1.738000000000000E+03  3.343684490519161E-19
2465017.078000000 = A.D. 2036-Nov-19 13:52:19.2000 TDB 
   5.539100697558828E+02  1.636211331060189E+03  1.914160775203544E+02
  -4.362643942109293E-03  1.484249769071706E-03 -6.286765532261527E-05
   5.797343974543884E-03  1.738000000000000E+03  3.443495967848092E-19
2465017.772000000 = A.D. 2036-Nov-20 06:31:40.8000 TDB 
   2.863473043305810E+02  1.704002653440400E+03  1.871474775963756E+02
  -4.542874575502683E-03  7.721015467258754E-04 -7.920596061237250E-05
   5.797343974543884E-03  1.738000000000000E+03 -1.656870523660241E-19
2465018.466000000 = A.D. 2036-Nov-20 23:11:02.4000 TDB 
   1.142403448674811E+01  1.728411059750055E+03  1.819579620949273E+02
  -4.607628335292676E-03  4.029955929441227E-05 -9.351884790914803E-05
   5.797343974543883E-03  1.738000000000000E+03 -2.794721365210045E-20
2465019.160000000 = A.D. 2036-Nov-21 15:50:24.0000 TDB 
  -2.638711065142191E+02  1.708814499306533E+03  1.759802435125249E+02
  -4.555250473293221E-03 -6.925524292191781E-04 -1.054399623915114E-04
   5.797343974543886E-03  1.738000000000000E+03  1.796606591920744E-20
2465019.854000000 = A.D. 2036-Nov-22 08:29:45.6000 TDB 
  -5.325395340717650E+02  1.645709691353019E+03  1.693672236218633E+02
  -4.387064667112361E-03 -1.407821268273802E-03 -1.146636784870683E-04
   5.797343974543884E-03  1.738000000000000E+03  2.076078728441748E-19
2465020.548000000 = A.D. 2036-Nov-23 01:09:07.2000 TDB 
  -7.877506980940175E+02  1.540699648474618E+03  1.622881106014088E+02
  -4.107340199510055E-03 -2.087318508795388E-03 -1.209528944868841E-04
   5.797343974543883E-03  1.738000000000000E+03  3.114118092662623E-19
2465021.242000001 = A.D. 2036-Nov-23 17:48:28.8000 TDB 
  -1.023015842101124E+03  1.396453044231826E+03  1.549241171212346E+02
  -3.723184081932454E-03 -2.713763438887468E-03 -1.241451858728116E-04
   5.797343974543884E-03  1.738000000000000E+03  7.545747686067123E-19
2465021.936000000 = A.D. 2036-Nov-24 10:27:50.4000 TDB 
  -1.232353105444094E+03  1.216636444692070E+03  1.474638428542385E+02
  -3.244360784809293E-03 -3.271223227738766E-03 -1.241571519918711E-04
   5.797343974543885E-03  1.738000000000000E+03  5.789065685077951E-20
2465022.630000000 = A.D. 2036-Nov-25 03:07:12.0000 TDB 
  -1.410439754508461E+03  1.005821118314602E+03  1.400984541473430E+02
  -2.683044105210817E-03 -3.745518894880632E-03 -1.209868137001756E-04
   5.797343974543884E-03  1.738000000000000E+03  8.184541140972276E-19
2465023.324000000 = A.D. 2036-Nov-25 19:46:33.6000 TDB 
  -1.552747653962097E+03  7.693667909610592E+02  1.330167812025479E+02
  -2.053507463363988E-03 -4.124586676648475E-03 -1.147139521822957E-04
   5.797343974543885E-03  1.738000000000000E+03  1.716757410057599E-19
2465024.018000000 = A.D. 2036-Nov-26 12:25:55.2000 TDB 
  -1.655658515291793E+03  5.132853055112214E+02  1.264004584170020E+02
  -1.371760524309966E-03 -4.398785494577992E-03 -1.054983242872723E-04
   5.797343974543884E-03  1.738000000000000E+03 -1.287568057543200E-19
2465024.712000000 = A.D. 2036-Nov-27 05:05:16.8000 TDB 
  -1.716555976557581E+03  2.440876625569074E+02  1.204192357223527E+02
  -6.551414429167374E-04 -4.561142614143296E-03 -9.357574798369260E-05
   5.797343974543885E-03  1.738000000000000E+03 -1.247643466611627E-19
2465025.406000000 = A.D. 2036-Nov-27 21:44:38.4000 TDB 
  -1.733892160840349E+03 -3.138165384496443E+01  1.152265871157417E+02
   7.812481087562111E-05 -4.607531179542996E-03 -7.925212089074569E-05
   5.797343974543886E-03  1.738000000000001E+03 -8.284352618301205E-20
2465026.100000001 = A.D. 2036-Nov-28 14:24:00.0000 TDB 
  -1.707227015761910E+03 -3.061188350653981E+02  1.109557365388923E+02
   8.093907085860005E-04 -4.536775077686301E-03 -6.289551084111950E-05
   5.797343974543883E-03  1.738000000000000E+03 -1.023067642621534E-19
2465026.794000000 = A.D. 2036-Nov-29 07:03:21.6000 TDB 
  -1.637239435201806E+03 -5.731389445746370E+02  1.077162106274872E+02
   1.520061084706302E-03 -4.350678472242243E-03 -4.492653370864914E-05
   5.797343974543886E-03  1.738000000000001E+03 -1.023067642621534E-19
2465027.488000000 = A.D. 2036-Nov-29 23:42:43.2000 TDB 
  -1.525709888308219E+03 -8.256536045643686E+02  1.055910128201631E+02
   2.192066546107891E-03 -4.053979303137784E-03 -2.580730277913540E-05
   5.797343974543884E-03  1.738000000000000E+03 -4.132195161417711E-19
2465028.182000000 = A.D. 2036-Nov-30 16:22:04.8000 TDB 
  -1.375475010796692E+03 -1.057243641373036E+03  1.046344945518582E+02
   2.808323254761637E-03 -3.654228012837247E-03 -6.029288316850272E-06
   5.797343974543883E-03  1.738000000000000E+03 -1.706152440591401E-19
